STARLINK-30702          
1 57955U 23148W   26068.24187221 -.00000848  00000+0 -16506-4 0  9991
2 57955  53.1613  16.2915 0000951  79.3427 280.7681 15.30191301138494
KUIPER-00222            
1 67782U 26030U   26068.67636257  .00055223  00000+0  17317-2 0  9992
2 67782  51.8817 219.7147 0012800  40.1845 320.0084 15.32445377  5087
